{
    "type": "FeatureCollection",
    "name": "graph",
    "features": [
        {
            "type": "Feature",
            "properties": {
                "id": 0,
                "frame": "map"
            },
            "geometry": {
                "type": "Point",
                "coordinates": [
                    -2.0790252685546875,
                    0.9862484931945801
                ]
            }
        },
        {
            "type": "Feature",
            "properties": {
                "id": 1,
                "frame": "map"
            },
            "geometry": {
                "type": "Point",
                "coordinates": [
                    -5.125718116760254,
                    1.7981510162353516
                ]
            }
        },
        {
            "type": "Feature",
            "properties": {
                "id": 2,
                "frame": "map"
            },
            "geometry": {
                "type": "Point",
                "coordinates": [
                    -4.1589674949646,
                    5.9545745849609375
                ]
            }
        },
        {
            "type": "Feature",
            "properties": {
                "id": 3,
                "frame": "map"
            },
            "geometry": {
                "type": "Point",
                "coordinates": [
                    -1.9078664779663086,
                    5.381464004516602
                ]
            }
        },
        {
            "type": "Feature",
            "properties": {
                "id": 4,
                "startid": 0,
                "endid": 1
            },
            "geometry": {
                "type": "MultiLineString",
                "coordinates": [
                    [
                        [
                            -2.0790252685546875,
                            0.9862484931945801
                        ],
                        [
                            -5.125718116760254,
                            1.7981510162353516
                        ]
                    ]
                ]
            }
        },
        {
            "type": "Feature",
            "properties": {
                "id": 5,
                "startid": 1,
                "endid": 0
            },
            "geometry": {
                "type": "MultiLineString",
                "coordinates": [
                    [
                        [
                            -5.125718116760254,
                            1.7981510162353516
                        ],
                        [
                            -2.0790252685546875,
                            0.9862484931945801
                        ]
                    ]
                ]
            }
        },
        {
            "type": "Feature",
            "properties": {
                "id": 6,
                "startid": 1,
                "endid": 2
            },
            "geometry": {
                "type": "MultiLineString",
                "coordinates": [
                    [
                        [
                            -5.125718116760254,
                            1.7981510162353516
                        ],
                        [
                            -4.1589674949646,
                            5.9545745849609375
                        ]
                    ]
                ]
            }
        },
        {
            "type": "Feature",
            "properties": {
                "id": 7,
                "startid": 2,
                "endid": 1
            },
            "geometry": {
                "type": "MultiLineString",
                "coordinates": [
                    [
                        [
                            -4.1589674949646,
                            5.9545745849609375
                        ],
                        [
                            -5.125718116760254,
                            1.7981510162353516
                        ]
                    ]
                ]
            }
        },
        {
            "type": "Feature",
            "properties": {
                "id": 8,
                "startid": 2,
                "endid": 3
            },
            "geometry": {
                "type": "MultiLineString",
                "coordinates": [
                    [
                        [
                            -4.1589674949646,
                            5.9545745849609375
                        ],
                        [
                            -1.9078664779663086,
                            5.381464004516602
                        ]
                    ]
                ]
            }
        },
        {
            "type": "Feature",
            "properties": {
                "id": 9,
                "startid": 3,
                "endid": 2
            },
            "geometry": {
                "type": "MultiLineString",
                "coordinates": [
                    [
                        [
                            -1.9078664779663086,
                            5.381464004516602
                        ],
                        [
                            -4.1589674949646,
                            5.9545745849609375
                        ]
                    ]
                ]
            }
        }
    ]
}